start=new Date('2023-04-04T00:00:00.000Z').valueOf();
sats=[{"COUNTRY_CODE":"US","BSTAR":"0.00016252000000","TIME_SYSTEM":"UTC","REV_AT_EPOCH":"3711","INCLINATION":"53.2155","ECCENTRICITY":"0.00012410","OBJECT_TYPE":"PAYLOAD","TLE_LINE2":"2 53438  53.2155 231.6931 0001241  93.5787 266.5347 15.08845757 37113","SEMIMAJOR_AXIS":"6917.863","CENTER_NAME":"EARTH","PERIAPSIS":"538.869","ELEMENT_SET_NO":"999","REF_FRAME":"TEME","SITE":"AFETR","MEAN_MOTION_DDOT":"0.0000000000000","NORAD_CAT_ID":"53438","RCS_SIZE":"LARGE","GP_ID":"229424136","ARG_OF_PERICENTER":"93.5787","FILE":"3879321","EPOCH":"2023-04-03T16:27:35.483904","MEAN_MOTION_DOT":"0.00002300","CLASSIFICATION_TYPE":"U","PERIOD":"95.437","APOAPSIS":"540.586","EPHEMERIS_TYPE":"0","MEAN_MOTION":"15.08845757","DECAY_DATE":null,"MEAN_ELEMENT_THEORY":"SGP4","OBJECT_ID":"2022-097BC","RA_OF_ASC_NODE":"231.6931","LAUNCH_DATE":"2022-08-10","MEAN_ANOMALY":"266.5347","OBJECT_NAME":"STARLINK-4526","TLE_LINE1":"1 53438U 22097BC  23093.68582736  .00002300  00000-0  16252-3 0  9999"},{"BSTAR":"0.00129560000000","TIME_SYSTEM":"UTC","COUNTRY_CODE":"US","ECCENTRICITY":"0.00005110","REV_AT_EPOCH":"3713","INCLINATION":"53.2134","TLE_LINE2":"2 53439  53.2134 231.0682 0000511  75.6115 284.4934 15.08862029 37137","OBJECT_TYPE":"PAYLOAD","SEMIMAJOR_AXIS":"6917.813","CENTER_NAME":"EARTH","REF_FRAME":"TEME","SITE":"AFETR","MEAN_MOTION_DDOT":"0.0000000000000","PERIAPSIS":"539.325","ELEMENT_SET_NO":"999","NORAD_CAT_ID":"53439","GP_ID":"229424887","FILE":"3879321","ARG_OF_PERICENTER":"75.6115","EPOCH":"2023-04-03T19:33:02.796480","MEAN_MOTION_DOT":"0.00020404","RCS_SIZE":"LARGE","APOAPSIS":"540.032","EPHEMERIS_TYPE":"0","MEAN_MOTION":"15.08862029","DECAY_DATE":null,"CLASSIFICATION_TYPE":"U","PERIOD":"95.436","MEAN_ANOMALY":"284.4934","LAUNCH_DATE":"2022-08-10","OBJECT_NAME":"STARLINK-4519","TLE_LINE1":"1 53439U 22097BD  23093.81461570  .00020404  00000-0  12956-2 0  9998","MEAN_ELEMENT_THEORY":"SGP4","OBJECT_ID":"2022-097BD","RA_OF_ASC_NODE":"231.0682"},{"LAUNCH_DATE":"2022-08-12","MEAN_ANOMALY":"113.9987","OBJECT_NAME":"STARLINK-4415","TLE_LINE1":"1 53465U 22099A   23093.89066508  .00002945  00000-0  23374-3 0  9996","MEAN_ELEMENT_THEORY":"SGP4","OBJECT_ID":"2022-099A","RA_OF_ASC_NODE":"216.0385","APOAPSIS":"564.405","MEAN_MOTION":"15.01268443","EPHEMERIS_TYPE":"0","DECAY_DATE":null,"CLASSIFICATION_TYPE":"U","PERIOD":"95.919","GP_ID":"229424639","ARG_OF_PERICENTER":"246.1023","FILE":"3879321","EPOCH":"2023-04-03T21:22:33.462912","MEAN_MOTION_DOT":"0.00002945","RCS_SIZE":"LARGE","NORAD_CAT_ID":"53465","REF_FRAME":"TEME","SITE":"AFWTR","MEAN_MOTION_DDOT":"0.0000000000000","PERIAPSIS":"561.566","ELEMENT_SET_NO":"999","TLE_LINE2":"2 53465  97.6566 216.0385 0002045 246.1023 113.9987 15.01268443 35334","SEMIMAJOR_AXIS":"6941.121","OBJECT_TYPE":"PAYLOAD","CENTER_NAME":"EARTH","ECCENTRICITY":"0.00020450","REV_AT_EPOCH":"3533","INCLINATION":"97.6566","BSTAR":"0.00023374000000","TIME_SYSTEM":"UTC","COUNTRY_CODE":"US"},{"COUNTRY_CODE":"US","BSTAR":"0.00011213000000","TIME_SYSTEM":"UTC","REV_AT_EPOCH":"3532","INCLINATION":"97.6582","ECCENTRICITY":"0.00008360","OBJECT_TYPE":"PAYLOAD","TLE_LINE2":"2 53466  97.6582 216.0393 0000836  70.4139 289.7175 15.01260422 35323","SEMIMAJOR_AXIS":"6941.146","CENTER_NAME":"EARTH","PERIAPSIS":"562.430","ELEMENT_SET_NO":"999","REF_FRAME":"TEME","SITE":"AFWTR","MEAN_MOTION_DDOT":"0.0000000000000","NORAD_CAT_ID":"53466","RCS_SIZE":"LARGE","GP_ID":"229424389","ARG_OF_PERICENTER":"70.4139","FILE":"3879321","EPOCH":"2023-04-03T21:19:53.982336","MEAN_MOTION_DOT":"0.00001382","CLASSIFICATION_TYPE":"U","PERIOD":"95.919","APOAPSIS":"563.591","MEAN_MOTION":"15.01260422","EPHEMERIS_TYPE":"0","DECAY_DATE":null,"MEAN_ELEMENT_THEORY":"SGP4","OBJECT_ID":"2022-099B","RA_OF_ASC_NODE":"216.0393","LAUNCH_DATE":"2022-08-12","MEAN_ANOMALY":"289.7175","OBJECT_NAME":"STARLINK-4398","TLE_LINE1":"1 53466U 22099B   23093.88881924  .00001382  00000-0  11213-3 0  9996"},{"COUNTRY_CODE":"US","BSTAR":"0.00222160000000","TIME_SYSTEM":"UTC","REV_AT_EPOCH":"3533","INCLINATION":"97.6634","ECCENTRICITY":"0.00036710","SEMIMAJOR_AXIS":"6927.308","TLE_LINE2":"2 53467  97.6634 216.2311 0003671 179.9093 180.2135 15.05761046 35332","OBJECT_TYPE":"PAYLOAD","CENTER_NAME":"EARTH","PERIAPSIS":"546.630","ELEMENT_SET_NO":"999","REF_FRAME":"TEME","MEAN_MOTION_DDOT":"0.0000000000000","SITE":"AFWTR","NORAD_CAT_ID":"53467","RCS_SIZE":"LARGE","FILE":"3879321","ARG_OF_PERICENTER":"179.9093","GP_ID":"229425640","MEAN_MOTION_DOT":"0.00032239","EPOCH":"2023-04-03T21:02:18.417984","PERIOD":"95.633","CLASSIFICATION_TYPE":"U","MEAN_MOTION":"15.05761046","EPHEMERIS_TYPE":"0","APOAPSIS":"551.716","DECAY_DATE":null,"MEAN_ELEMENT_THEORY":"SGP4","RA_OF_ASC_NODE":"216.2311","OBJECT_ID":"2022-099C","LAUNCH_DATE":"2022-08-12","MEAN_ANOMALY":"180.2135","TLE_LINE1":"1 53467U 22099C   23093.87660206  .00032239  00000-0  22216-2 0  9993","OBJECT_NAME":"STARLINK-4394"},{"PERIAPSIS":"562.147","ELEMENT_SET_NO":"999","REF_FRAME":"TEME","SITE":"AFWTR","MEAN_MOTION_DDOT":"0.0000000000000","TLE_LINE2":"2 53468  97.6557 216.0365 0001221  92.9226 267.2138 15.01265543 35320","SEMIMAJOR_AXIS":"6941.130","OBJECT_TYPE":"PAYLOAD","CENTER_NAME":"EARTH","REV_AT_EPOCH":"3532","INCLINATION":"97.6557","ECCENTRICITY":"0.00012210","COUNTRY_CODE":"US","BSTAR":"0.00046579000000","TIME_SYSTEM":"UTC","MEAN_ELEMENT_THEORY":"SGP4","OBJECT_ID":"2022-099D","RA_OF_ASC_NODE":"216.0365","MEAN_ANOMALY":"267.2138","LAUNCH_DATE":"2022-08-12","OBJECT_NAME":"STARLINK-4400","TLE_LINE1":"1 53468U 22099D   23093.88511611  .00005930  00000-0  46579-3 0  9997","CLASSIFICATION_TYPE":"U","PERIOD":"95.919","APOAPSIS":"563.842","MEAN_MOTION":"15.01265543","EPHEMERIS_TYPE":"0","DECAY_DATE":null,"RCS_SIZE":"LARGE","GP_ID":"229425385","ARG_OF_PERICENTER":"92.9226","FILE":"3879321","EPOCH":"2023-04-03T21:14:34.031904","MEAN_MOTION_DOT":"0.00005930","NORAD_CAT_ID":"53468"},{"CLASSIFICATION_TYPE":"U","PERIOD":"95.919","EPHEMERIS_TYPE":"0","MEAN_MOTION":"15.01261159","APOAPSIS":"563.825","DECAY_DATE":null,"MEAN_ELEMENT_THEORY":"SGP4","RA_OF_ASC_NODE":"216.0344","OBJECT_ID":"2022-099E","LAUNCH_DATE":"2022-08-12","MEAN_ANOMALY":"274.0743","TLE_LINE1":"1 53469U 22099E   23093.88326633  .00002831  00000-0  22489-3 0  9997","OBJECT_NAME":"STARLINK-4399","NORAD_CAT_ID":"53469","RCS_SIZE":"LARGE","FILE":"3879321","ARG_OF_PERICENTER":"86.0616","GP_ID":"229424139","MEAN_MOTION_DOT":"0.00002831","EPOCH":"2023-04-03T21:11:54.210912","OBJECT_TYPE":"PAYLOAD","TLE_LINE2":"2 53469  97.6552 216.0344 0001177  86.0616 274.0743 15.01261159 35327","SEMIMAJOR_AXIS":"6941.143","CENTER_NAME":"EARTH","PERIAPSIS":"562.191","ELEMENT_SET_NO":"999","REF_FRAME":"TEME","MEAN_MOTION_DDOT":"0.0000000000000","SITE":"AFWTR","COUNTRY_CODE":"US","BSTAR":"0.00022489000000","TIME_SYSTEM":"UTC","REV_AT_EPOCH":"3532","INCLINATION":"97.6552","ECCENTRICITY":"0.00011770"},{"CLASSIFICATION_TYPE":"U","PERIOD":"95.919","MEAN_MOTION":"15.01270535","EPHEMERIS_TYPE":"0","APOAPSIS":"564.241","DECAY_DATE":null,"MEAN_ELEMENT_THEORY":"SGP4","RA_OF_ASC_NODE":"216.0358","OBJECT_ID":"2022-099F","MEAN_ANOMALY":"277.3081","LAUNCH_DATE":"2022-08-12","TLE_LINE1":"1 53470U 22099F   23093.88351776  .00024899  00000-0  19357-2 0  9992","OBJECT_NAME":"STARLINK-4393","NORAD_CAT_ID":"53470","RCS_SIZE":"LARGE","FILE":"3879321","ARG_OF_PERICENTER":"82.8350","GP_ID":"229424890","MEAN_MOTION_DOT":"0.00024899","EPOCH":"2023-04-03T21:12:15.934464","OBJECT_TYPE":"PAYLOAD","TLE_LINE2":"2 53470  97.6559 216.0358 0001818  82.8350 277.3081 15.01270535 35321","SEMIMAJOR_AXIS":"6941.114","CENTER_NAME":"EARTH","PERIAPSIS":"561.717","ELEMENT_SET_NO":"999","REF_FRAME":"TEME","MEAN_MOTION_DDOT":"0.0000000000000","SITE":"AFWTR","COUNTRY_CODE":"US","BSTAR":"0.00193570000000","TIME_SYSTEM":"UTC","REV_AT_EPOCH":"3532","INCLINATION":"97.6559","ECCENTRICITY":"0.00018180"},{"INCLINATION":"97.6571","REV_AT_EPOCH":"3532","ECCENTRICITY":"0.00014920","COUNTRY_CODE":"US","TIME_SYSTEM":"UTC","BSTAR":"-0.00013569000000","ELEMENT_SET_NO":"999","PERIAPSIS":"561.941","MEAN_MOTION_DDOT":"0.0000000000000","SITE":"AFWTR","REF_FRAME":"TEME","CENTER_NAME":"EARTH","TLE_LINE2":"2 53471  97.6571 216.0330 0001492 102.9740 257.1651 15.01271368 35325","SEMIMAJOR_AXIS":"6941.112","OBJECT_TYPE":"PAYLOAD","RCS_SIZE":"LARGE","MEAN_MOTION_DOT":"-0.00001802","EPOCH":"2023-04-03T21:06:34.200864","ARG_OF_PERICENTER":"102.9740","FILE":"3879321","GP_ID":"229425141","NORAD_CAT_ID":"53471","RA_OF_ASC_NODE":"216.0330","OBJECT_ID":"2022-099G","MEAN_ELEMENT_THEORY":"SGP4","TLE_LINE1":"1 53471U 22099G   23093.87956251 -.00001802  00000-0 -13569-3 0  9992","OBJECT_NAME":"STARLINK-4316","LAUNCH_DATE":"2022-08-12","MEAN_ANOMALY":"257.1651","PERIOD":"95.919","CLASSIFICATION_TYPE":"U","DECAY_DATE":null,"EPHEMERIS_TYPE":"0","MEAN_MOTION":"15.01271368","APOAPSIS":"564.012"},{"ECCENTRICITY":"0.00010450","INCLINATION":"97.6567","REV_AT_EPOCH":"3532","TIME_SYSTEM":"UTC","BSTAR":"0.00099487000000","COUNTRY_CODE":"US","MEAN_MOTION_DDOT":"0.0000000000000","SITE":"AFWTR","REF_FRAME":"TEME","ELEMENT_SET_NO":"999","PERIAPSIS":"562.271","CENTER_NAME":"EARTH","TLE_LINE2":"2 53472  97.6567 216.0344 0001045  96.8817 263.2527 15.01265117 35321","OBJECT_TYPE":"PAYLOAD","SEMIMAJOR_AXIS":"6941.131","MEAN_MOTION_DOT":"0.00012744","EPOCH":"2023-04-03T21:09:14.111712","ARG_OF_PERICENTER":"96.8817","FILE":"3879321","GP_ID":"229425885","RCS_SIZE":"LARGE","NORAD_CAT_ID":"53472","TLE_LINE1":"1 53472U 22099H   23093.88141333  .00012744  00000-0  99487-3 0  9999","OBJECT_NAME":"STARLINK-4447","MEAN_ANOMALY":"263.2527","LAUNCH_DATE":"2022-08-12","RA_OF_ASC_NODE":"216.0344","OBJECT_ID":"2022-099H","MEAN_ELEMENT_THEORY":"SGP4","DECAY_DATE":null,"MEAN_MOTION":"15.01265117","EPHEMERIS_TYPE":"0","APOAPSIS":"563.721","CLASSIFICATION_TYPE":"U","PERIOD":"95.919"}];
